{
  "norad_id": 67392,
  "name": "HAWK-13A",
  "history": [
    {
      "epoch": "2026-04-11T17:17:40.431840Z",
      "apogee_km": 513.6541810099152,
      "perigee_km": 506.4808048509767,
      "latitude_deg": 4.9627191426694846e-05,
      "longitude_deg": 2.224086656244777,
      "height_km": 516.7309944192355,
      "semi_major_axis_km": 6888.204492930446,
      "eccentricity": 0.0005207,
      "inclination_deg": 97.4445,
      "raan_deg": 101.5786,
      "arg_perigee_deg": 184.67,
      "mean_anomaly_deg": 175.4487,
      "mean_motion_rev_day": 15.18601115
    },
    {
      "epoch": "2026-04-13T05:40:00.992640Z",
      "apogee_km": 513.7461681871682,
      "perigee_km": 506.3456422374675,
      "latitude_deg": 5.3469533026745415e-05,
      "longitude_deg": 176.63715486535006,
      "height_km": 516.8339549298214,
      "semi_major_axis_km": 6888.182905212318,
      "eccentricity": 0.00053719,
      "inclination_deg": 97.4444,
      "raan_deg": 103.0711,
      "arg_perigee_deg": 179.3183,
      "mean_anomaly_deg": 180.806,
      "mean_motion_rev_day": 15.18608254
    },
    {
      "epoch": "2026-04-14T13:17:41.851968Z",
      "apogee_km": 513.8249045406965,
      "perigee_km": 506.2258837874542,
      "latitude_deg": 2.5052432287066122e-05,
      "longitude_deg": 62.2156961620877,
      "height_km": 516.8959577415089,
      "semi_major_axis_km": 6888.162394164075,
      "eccentricity": 0.0005516,
      "inclination_deg": 97.4445,
      "raan_deg": 104.3688,
      "arg_perigee_deg": 174.6839,
      "mean_anomaly_deg": 185.4455,
      "mean_motion_rev_day": 15.18615037
    },
    {
      "epoch": "2026-04-15T17:45:36.145152Z",
      "apogee_km": 513.903014890323,
      "perigee_km": 506.1097694564187,
      "latitude_deg": -6.116179052155061e-05,
      "longitude_deg": -4.7614314357655765,
      "height_km": 516.9399543854448,
      "semi_major_axis_km": 6888.143392173371,
      "eccentricity": 0.0005657,
      "inclination_deg": 97.4443,
      "raan_deg": 105.5369,
      "arg_perigee_deg": 170.8227,
      "mean_anomaly_deg": 189.3111,
      "mean_motion_rev_day": 15.18621321
    },
    {
      "epoch": "2026-04-16T12:44:12.149952Z",
      "apogee_km": 513.9459521167255,
      "perigee_km": 506.039756669853,
      "latitude_deg": -2.255477957556429e-05,
      "longitude_deg": 70.58780100934887,
      "height_km": 516.9519505125139,
      "semi_major_axis_km": 6888.129854393289,
      "eccentricity": 0.0005739,
      "inclination_deg": 97.4442,
      "raan_deg": 106.3155,
      "arg_perigee_deg": 168.4229,
      "mean_anomaly_deg": 191.7138,
      "mean_motion_rev_day": 15.18625798
    },
    {
      "epoch": "2026-04-17T21:56:44.702592Z",
      "apogee_km": 514.019772290334,
      "perigee_km": 505.9171560707091,
      "latitude_deg": -1.1927076929675135e-05,
      "longitude_deg": -67.54888133521652,
      "height_km": 516.9518239318256,
      "semi_major_axis_km": 6888.105464180521,
      "eccentricity": 0.00058816,
      "inclination_deg": 97.4443,
      "raan_deg": 107.6783,
      "arg_perigee_deg": 164.171,
      "mean_anomaly_deg": 195.9709,
      "mean_motion_rev_day": 15.18633864
    },
    {
      "epoch": "2026-04-18T13:45:34.250976Z",
      "apogee_km": 514.0571585064372,
      "perigee_km": 505.85481737639657,
      "latitude_deg": 5.877383685800627e-05,
      "longitude_deg": 55.24420978431054,
      "height_km": 516.9391629066957,
      "semi_major_axis_km": 6888.092987941417,
      "eccentricity": 0.0005954,
      "inclination_deg": 97.4445,
      "raan_deg": 108.3273,
      "arg_perigee_deg": 161.8868,
      "mean_anomaly_deg": 198.258,
      "mean_motion_rev_day": 15.1863799
    }
  ]
}